STARLINK-35574          
1 66111U 25236AB  25308.25002315 -.00060216  00000+0 -40967-3 0  9994
2 66111  53.1579 331.1082 0001223  99.7746 318.7255 15.74195098  3637
STARLINK-35531          
1 66112U 25236AC  25308.25002315 -.00073010  00000+0 -49834-3 0  9993
2 66112  53.1580 331.1001 0000998 119.9809 302.3517 15.74197932  3699
STARLINK-35491          
1 66113U 25236AD  25308.25002315  .00016816  00000+0  11898-3 0  9992
2 66113  53.1580 331.1041 0000671  89.8660 330.5342 15.74168499  3697
STARLINK-35496          
1 66114U 25237A   25308.25002315 -.01454813  00000+0 -10480-1 0  9994
2 66114  53.1527 270.8713 0000592  86.5049 304.3501 15.75805201  3293
STARLINK-35428          
1 66115U 25237B   25308.25002315 -.01485148  00000+0 -10739-1 0  9997
2 66115  53.1525 270.8673 0000690 101.3212 291.5123 15.75781395  3298
STARLINK-35573          
1 66116U 25237C   25308.25002315 -.01495990  00000+0 -10843-1 0  9990
2 66116  53.1526 270.8631 0000840  90.3926 304.4235 15.75749487  3294
STARLINK-35572          
1 66117U 25237D   25308.25002315 -.01528647  00000+0 -11145-1 0  9993
2 66117  53.1527 270.8551 0000847  87.3024 311.4740 15.75686481  3292
STARLINK-35468          
1 66118U 25237E   25308.25002315 -.01502550  00000+0 -10893-1 0  9998
2 66118  53.1524 270.8590 0000778  92.9136 303.8098 15.75759124  3298
STARLINK-35547          
1 66119U 25237F   25308.25002315 -.01518471  00000+0 -11173-1 0  9990
2 66119  53.1524 270.8418 0001078  82.4235 322.4513 15.75453946  3298
STARLINK-35553          
1 66120U 25237G   25308.25002315 -.01509537  00000+0 -11014-1 0  9999
2 66120  53.1523 270.8509 0000928 102.9662 297.8047 15.75628622  3297
STARLINK-35631          
1 66121U 25237H   25308.25002315 -.01463331  00000+0 -10698-1 0  9998
2 66121  53.1523 270.8456 0000784 104.8149 298.0570 15.75488554  3292
STARLINK-35653          
1 66122U 25237J   25308.25002315 -.01385155  00000+0 -10159-1 0  9998
2 66122  53.1525 270.8377 0000996 112.8509 294.1308 15.75252799  3297
