CCSDS_OMM_VERS = 2.0
CREATION_DATE  = 
ORIGINATOR     = 

OBJECT_NAME    = STARLINK-35574
OBJECT_ID      = 2025-236AB
CENTER_NAME    = EARTH
REF_FRAME      = TEME
TIME_SYSTEM    = UTC
MEAN_ELEMENT_THEORY = SGP/SGP4

EPOCH          = 2025-11-04T06:00:02.000160
MEAN_MOTION    = 15.74195098
ECCENTRICITY   = .00012234
INCLINATION    = 53.1579
RA_OF_ASC_NODE = 331.1082
ARG_OF_PERICENTER = 99.7746
MEAN_ANOMALY   = 318.7255

EPHEMERIS_TYPE = 0
CLASSIFICATION_TYPE = U
NORAD_CAT_ID   = 66111
ELEMENT_SET_NO = 999
REV_AT_EPOCH   = 363
BSTAR          = -.40967296E-3
MEAN_MOTION_DOT = -.60216E-3
MEAN_MOTION_DDOT = 0

CCSDS_OMM_VERS = 2.0
CREATION_DATE  = 
ORIGINATOR     = 

OBJECT_NAME    = STARLINK-35531
OBJECT_ID      = 2025-236AC
CENTER_NAME    = EARTH
REF_FRAME      = TEME
TIME_SYSTEM    = UTC
MEAN_ELEMENT_THEORY = SGP/SGP4

EPOCH          = 2025-11-04T06:00:02.000160
MEAN_MOTION    = 15.74197932
ECCENTRICITY   = .00009984
INCLINATION    = 53.1580
RA_OF_ASC_NODE = 331.1001
ARG_OF_PERICENTER = 119.9809
MEAN_ANOMALY   = 302.3517

EPHEMERIS_TYPE = 0
CLASSIFICATION_TYPE = U
NORAD_CAT_ID   = 66112
ELEMENT_SET_NO = 999
REV_AT_EPOCH   = 369
BSTAR          = -.49833843E-3
MEAN_MOTION_DOT = -.7301E-3
MEAN_MOTION_DDOT = 0

CCSDS_OMM_VERS = 2.0
CREATION_DATE  = 
ORIGINATOR     = 

OBJECT_NAME    = STARLINK-35491
OBJECT_ID      = 2025-236AD
CENTER_NAME    = EARTH
REF_FRAME      = TEME
TIME_SYSTEM    = UTC
MEAN_ELEMENT_THEORY = SGP/SGP4

EPOCH          = 2025-11-04T06:00:02.000160
MEAN_MOTION    = 15.74168499
ECCENTRICITY   = .00006715
INCLINATION    = 53.1580
RA_OF_ASC_NODE = 331.1041
ARG_OF_PERICENTER = 89.8660
MEAN_ANOMALY   = 330.5342

EPHEMERIS_TYPE = 0
CLASSIFICATION_TYPE = U
NORAD_CAT_ID   = 66113
ELEMENT_SET_NO = 999
REV_AT_EPOCH   = 369
BSTAR          = .11898211E-3
MEAN_MOTION_DOT = .16816E-3
MEAN_MOTION_DDOT = 0

CCSDS_OMM_VERS = 2.0
CREATION_DATE  = 
ORIGINATOR     = 

OBJECT_NAME    = STARLINK-35496
OBJECT_ID      = 2025-237A
CENTER_NAME    = EARTH
REF_FRAME      = TEME
TIME_SYSTEM    = UTC
MEAN_ELEMENT_THEORY = SGP/SGP4

EPOCH          = 2025-11-04T06:00:02.000160
MEAN_MOTION    = 15.75805201
ECCENTRICITY   = .00005921
INCLINATION    = 53.1527
RA_OF_ASC_NODE = 270.8713
ARG_OF_PERICENTER = 86.5049
MEAN_ANOMALY   = 304.3501

EPHEMERIS_TYPE = 0
CLASSIFICATION_TYPE = U
NORAD_CAT_ID   = 66114
ELEMENT_SET_NO = 999
REV_AT_EPOCH   = 329
BSTAR          = -.1048003E-1
MEAN_MOTION_DOT = -.1454813E-1
MEAN_MOTION_DDOT = 0

CCSDS_OMM_VERS = 2.0
CREATION_DATE  = 
ORIGINATOR     = 

OBJECT_NAME    = STARLINK-35428
OBJECT_ID      = 2025-237B
CENTER_NAME    = EARTH
REF_FRAME      = TEME
TIME_SYSTEM    = UTC
MEAN_ELEMENT_THEORY = SGP/SGP4

EPOCH          = 2025-11-04T06:00:02.000160
MEAN_MOTION    = 15.75781395
ECCENTRICITY   = .000069
INCLINATION    = 53.1525
RA_OF_ASC_NODE = 270.8673
ARG_OF_PERICENTER = 101.3212
MEAN_ANOMALY   = 291.5123

EPHEMERIS_TYPE = 0
CLASSIFICATION_TYPE = U
NORAD_CAT_ID   = 66115
ELEMENT_SET_NO = 999
REV_AT_EPOCH   = 329
BSTAR          = -.10739386E-1
MEAN_MOTION_DOT = -.1485148E-1
MEAN_MOTION_DDOT = 0

CCSDS_OMM_VERS = 2.0
CREATION_DATE  = 
ORIGINATOR     = 

OBJECT_NAME    = STARLINK-35573
OBJECT_ID      = 2025-237C
CENTER_NAME    = EARTH
REF_FRAME      = TEME
TIME_SYSTEM    = UTC
MEAN_ELEMENT_THEORY = SGP/SGP4

EPOCH          = 2025-11-04T06:00:02.000160
MEAN_MOTION    = 15.75749487
ECCENTRICITY   = .00008401
INCLINATION    = 53.1526
RA_OF_ASC_NODE = 270.8631
ARG_OF_PERICENTER = 90.3926
MEAN_ANOMALY   = 304.4235

EPHEMERIS_TYPE = 0
CLASSIFICATION_TYPE = U
NORAD_CAT_ID   = 66116
ELEMENT_SET_NO = 999
REV_AT_EPOCH   = 329
BSTAR          = -.10843253E-1
MEAN_MOTION_DOT = -.149599E-1
MEAN_MOTION_DDOT = 0

CCSDS_OMM_VERS = 2.0
CREATION_DATE  = 
ORIGINATOR     = 

OBJECT_NAME    = STARLINK-35572
OBJECT_ID      = 2025-237D
CENTER_NAME    = EARTH
REF_FRAME      = TEME
TIME_SYSTEM    = UTC
MEAN_ELEMENT_THEORY = SGP/SGP4

EPOCH          = 2025-11-04T06:00:02.000160
MEAN_MOTION    = 15.75686481
ECCENTRICITY   = .00008477
INCLINATION    = 53.1527
RA_OF_ASC_NODE = 270.8551
ARG_OF_PERICENTER = 87.3024
MEAN_ANOMALY   = 311.4740

EPHEMERIS_TYPE = 0
CLASSIFICATION_TYPE = U
NORAD_CAT_ID   = 66117
ELEMENT_SET_NO = 999
REV_AT_EPOCH   = 329
BSTAR          = -.11144788E-1
MEAN_MOTION_DOT = -.1528647E-1
MEAN_MOTION_DDOT = 0

CCSDS_OMM_VERS = 2.0
CREATION_DATE  = 
ORIGINATOR     = 

OBJECT_NAME    = STARLINK-35468
OBJECT_ID      = 2025-237E
CENTER_NAME    = EARTH
REF_FRAME      = TEME
TIME_SYSTEM    = UTC
MEAN_ELEMENT_THEORY = SGP/SGP4

EPOCH          = 2025-11-04T06:00:02.000160
MEAN_MOTION    = 15.75759124
ECCENTRICITY   = .00007788
INCLINATION    = 53.1524
RA_OF_ASC_NODE = 270.8590
ARG_OF_PERICENTER = 92.9136
MEAN_ANOMALY   = 303.8098

EPHEMERIS_TYPE = 0
CLASSIFICATION_TYPE = U
NORAD_CAT_ID   = 66118
ELEMENT_SET_NO = 999
REV_AT_EPOCH   = 329
BSTAR          = -.10893086E-1
MEAN_MOTION_DOT = -.150255E-1
MEAN_MOTION_DDOT = 0

CCSDS_OMM_VERS = 2.0
CREATION_DATE  = 
ORIGINATOR     = 

OBJECT_NAME    = STARLINK-35547
OBJECT_ID      = 2025-237F
CENTER_NAME    = EARTH
REF_FRAME      = TEME
TIME_SYSTEM    = UTC
MEAN_ELEMENT_THEORY = SGP/SGP4

EPOCH          = 2025-11-04T06:00:02.000160
MEAN_MOTION    = 15.75453946
ECCENTRICITY   = .00010783
INCLINATION    = 53.1524
RA_OF_ASC_NODE = 270.8418
ARG_OF_PERICENTER = 82.4235
MEAN_ANOMALY   = 322.4513

EPHEMERIS_TYPE = 0
CLASSIFICATION_TYPE = U
NORAD_CAT_ID   = 66119
ELEMENT_SET_NO = 999
REV_AT_EPOCH   = 329
BSTAR          = -.11173366E-1
MEAN_MOTION_DOT = -.1518471E-1
MEAN_MOTION_DDOT = 0

CCSDS_OMM_VERS = 2.0
CREATION_DATE  = 
ORIGINATOR     = 

OBJECT_NAME    = STARLINK-35553
OBJECT_ID      = 2025-237G
CENTER_NAME    = EARTH
REF_FRAME      = TEME
TIME_SYSTEM    = UTC
MEAN_ELEMENT_THEORY = SGP/SGP4

EPOCH          = 2025-11-04T06:00:02.000160
MEAN_MOTION    = 15.75628622
ECCENTRICITY   = .0000928
INCLINATION    = 53.1523
RA_OF_ASC_NODE = 270.8509
ARG_OF_PERICENTER = 102.9662
MEAN_ANOMALY   = 297.8047

EPHEMERIS_TYPE = 0
CLASSIFICATION_TYPE = U
NORAD_CAT_ID   = 66120
ELEMENT_SET_NO = 999
REV_AT_EPOCH   = 329
BSTAR          = -.1101364E-1
MEAN_MOTION_DOT = -.1509537E-1
MEAN_MOTION_DDOT = 0

CCSDS_OMM_VERS = 2.0
CREATION_DATE  = 
ORIGINATOR     = 

OBJECT_NAME    = STARLINK-35631
OBJECT_ID      = 2025-237H
CENTER_NAME    = EARTH
REF_FRAME      = TEME
TIME_SYSTEM    = UTC
MEAN_ELEMENT_THEORY = SGP/SGP4

EPOCH          = 2025-11-04T06:00:02.000160
MEAN_MOTION    = 15.75488554
ECCENTRICITY   = .00007848
INCLINATION    = 53.1523
RA_OF_ASC_NODE = 270.8456
ARG_OF_PERICENTER = 104.8149
MEAN_ANOMALY   = 298.0570

EPHEMERIS_TYPE = 0
CLASSIFICATION_TYPE = U
NORAD_CAT_ID   = 66121
ELEMENT_SET_NO = 999
REV_AT_EPOCH   = 329
BSTAR          = -.10697816E-1
MEAN_MOTION_DOT = -.1463331E-1
MEAN_MOTION_DDOT = 0

CCSDS_OMM_VERS = 2.0
CREATION_DATE  = 
ORIGINATOR     = 

OBJECT_NAME    = STARLINK-35653
OBJECT_ID      = 2025-237J
CENTER_NAME    = EARTH
REF_FRAME      = TEME
TIME_SYSTEM    = UTC
MEAN_ELEMENT_THEORY = SGP/SGP4

EPOCH          = 2025-11-04T06:00:02.000160
MEAN_MOTION    = 15.75252799
ECCENTRICITY   = .00009966
INCLINATION    = 53.1525
RA_OF_ASC_NODE = 270.8377
ARG_OF_PERICENTER = 112.8509
MEAN_ANOMALY   = 294.1308

EPHEMERIS_TYPE = 0
CLASSIFICATION_TYPE = U
NORAD_CAT_ID   = 66122
ELEMENT_SET_NO = 999
REV_AT_EPOCH   = 329
BSTAR          = -.10158581E-1
MEAN_MOTION_DOT = -.1385155E-1
MEAN_MOTION_DDOT = 0

